<?xml version="1.0" encoding="UTF-8"?>
<gpx creator="StravaGPX" version="1.1" xmlns="http://www.topografix.com/GPX/1/1" xmlns:xsi="http://www.w3.org/2001/XMLSchema-instance" xsi:schemaLocation="http://www.topografix.com/GPX/1/1 http://www.topografix.com/GPX/1/1/gpx.xsd">
 <metadata>
  <name>Boston Marathon 2023</name>
  <author>
   <name>William Sorg</name>
   <link href="https://www.strava.com/athletes/45531552"/>
  </author>
  <copyright author="OpenStreetMap contributors">
   <year>2020</year>
   <license>https://www.openstreetmap.org/copyright</license>
  </copyright>
  <link href="https://www.strava.com/routes/3257180668131510154"/>
 </metadata>
 <trk>
  <name>Boston Marathon 2023</name>
  <link href="https://www.strava.com/routes/3257180668131510154"/>
  <type>running</type>
  <trkseg>
   <trkpt lat="42.22977" lon="-71.51821000000001">
    <ele>143.08</ele>
   </trkpt>
   <trkpt lat="42.229980000000005" lon="-71.51795">
    <ele>140.61</ele>
   </trkpt>
   <trkpt lat="42.230540000000005" lon="-71.51742">
    <ele>136.57000000000002</ele>
   </trkpt>
   <trkpt lat="42.230830000000005" lon="-71.5172">
    <ele>135.49</ele>
   </trkpt>
   <trkpt lat="42.23129" lon="-71.51692">
    <ele>134.51000000000002</ele>
   </trkpt>
   <trkpt lat="42.2316" lon="-71.51661">
    <ele>132.06</ele>
   </trkpt>
   <trkpt lat="42.23176" lon="-71.51642000000001">
    <ele>130.81</ele>
   </trkpt>
   <trkpt lat="42.231950000000005" lon="-71.51606000000001">
    <ele>128.56</ele>
   </trkpt>
   <trkpt lat="42.2321" lon="-71.51572">
    <ele>126.9</ele>
   </trkpt>
   <trkpt lat="42.23241667237491" lon="-71.51490667492453">
    <ele>120.85000000000001</ele>
   </trkpt>
   <trkpt lat="42.23273333900403" lon="-71.51409334168775">
    <ele>116.13000000000001</ele>
   </trkpt>
   <trkpt lat="42.233050000000006" lon="-71.51328000000001">
    <ele>112.43</ele>
   </trkpt>
   <trkpt lat="42.23323500160725" lon="-71.5126750017158">
    <ele>111.13000000000001</ele>
   </trkpt>
   <trkpt lat="42.23342" lon="-71.51207000000001">
    <ele>109.87</ele>
   </trkpt>
   <trkpt lat="42.23357" lon="-71.51169">
    <ele>108.45</ele>
   </trkpt>
   <trkpt lat="42.233886671095206" lon="-71.51097667380523">
    <ele>103.96000000000001</ele>
   </trkpt>
   <trkpt lat="42.23420333777064" lon="-71.51026334045225">
    <ele>100.5</ele>
   </trkpt>
   <trkpt lat="42.23452" lon="-71.50955">
    <ele>100.13000000000001</ele>
   </trkpt>
   <trkpt lat="42.234820000000006" lon="-71.50893">
    <ele>99.95</ele>
   </trkpt>
   <trkpt lat="42.23533500291151" lon="-71.5081150066083">
    <ele>100.71000000000001</ele>
   </trkpt>
   <trkpt lat="42.235850000000006" lon="-71.5073">
    <ele>104.85000000000001</ele>
   </trkpt>
   <trkpt lat="42.23604" lon="-71.50694">
    <ele>107.61000000000001</ele>
   </trkpt>
   <trkpt lat="42.23617" lon="-71.5066">
    <ele>109.25000000000001</ele>
   </trkpt>
   <trkpt lat="42.23624" lon="-71.50638000000001">
    <ele>109.82000000000001</ele>
   </trkpt>
   <trkpt lat="42.23635" lon="-71.50586000000001">
    <ele>110.56</ele>
   </trkpt>
   <trkpt lat="42.23644500328518" lon="-71.50499000132852">
    <ele>108.41000000000001</ele>
   </trkpt>
   <trkpt lat="42.236540000000005" lon="-71.50412">
    <ele>108.93</ele>
   </trkpt>
   <trkpt lat="42.23659000000001" lon="-71.50327">
    <ele>110.56</ele>
   </trkpt>
   <trkpt lat="42.236580000000004" lon="-71.50291">
    <ele>110.44000000000001</ele>
   </trkpt>
   <trkpt lat="42.236475003848184" lon="-71.50196999853158">
    <ele>108.28000000000002</ele>
   </trkpt>
   <trkpt lat="42.23637" lon="-71.50103">
    <ele>106.02</ele>
   </trkpt>
   <trkpt lat="42.23635" lon="-71.50027">
    <ele>104.31000000000002</ele>
   </trkpt>
   <trkpt lat="42.23639" lon="-71.49973">
    <ele>103.04</ele>
   </trkpt>
   <trkpt lat="42.23649500189487" lon="-71.4990650012694">
    <ele>101.09000000000002</ele>
   </trkpt>
   <trkpt lat="42.2366" lon="-71.4984">
    <ele>100.71000000000001</ele>
   </trkpt>
   <trkpt lat="42.23677" lon="-71.49752000000001">
    <ele>99.87000000000002</ele>
   </trkpt>
   <trkpt lat="42.237010008981706" lon="-71.49650334105073">
    <ele>97.85000000000001</ele>
   </trkpt>
   <trkpt lat="42.23725000898545" lon="-71.49548667436837">
    <ele>96.9</ele>
   </trkpt>
   <trkpt lat="42.23749" lon="-71.49447">
    <ele>97.7</ele>
   </trkpt>
   <trkpt lat="42.23767" lon="-71.49376000000001">
    <ele>97.23</ele>
   </trkpt>
   <trkpt lat="42.237840000000006" lon="-71.49325">
    <ele>95.77000000000001</ele>
   </trkpt>
   <trkpt lat="42.23812" lon="-71.49258">
    <ele>96.64</ele>
   </trkpt>
   <trkpt lat="42.23828" lon="-71.49226">
    <ele>97.38000000000001</ele>
   </trkpt>
   <trkpt lat="42.238650002040636" lon="-71.49159000376368">
    <ele>100.51</ele>
   </trkpt>
   <trkpt lat="42.239020000000004" lon="-71.49092">
    <ele>102.04</ele>
   </trkpt>
   <trkpt lat="42.239363337489024" lon="-71.49023000746797">
    <ele>101.20000000000002</ele>
   </trkpt>
   <trkpt lat="42.23970667084261" lon="-71.48954000742735">
    <ele>98.48</ele>
   </trkpt>
   <trkpt lat="42.240050000000004" lon="-71.48885">
    <ele>96.44000000000001</ele>
   </trkpt>
   <trkpt lat="42.24050003685278" lon="-71.48787906232586">
    <ele>96.76</ele>
   </trkpt>
   <trkpt lat="42.24095006551678" lon="-71.48690811080179">
    <ele>97.52000000000001</ele>
   </trkpt>
   <trkpt lat="42.24140008599178" lon="-71.48593714542761">
    <ele>95.91000000000001</ele>
   </trkpt>
   <trkpt lat="42.241850098277524" lon="-71.48496616620317">
    <ele>92.08000000000001</ele>
   </trkpt>
   <trkpt lat="42.24230010237376" lon="-71.48399517312829">
    <ele>91.11000000000001</ele>
   </trkpt>
   <trkpt lat="42.24275009828026" lon="-71.48302416620282">
    <ele>90.00000000000001</ele>
   </trkpt>
   <trkpt lat="42.24320008599675" lon="-71.4820531454266">
    <ele>87.85000000000001</ele>
   </trkpt>
   <trkpt lat="42.24365006552301" lon="-71.48108211079946">
    <ele>87.73</ele>
   </trkpt>
   <trkpt lat="42.24410003685879" lon="-71.48011106232124">
    <ele>90.79</ele>
   </trkpt>
   <trkpt lat="42.244550000000004" lon="-71.47914">
    <ele>92.94000000000001</ele>
   </trkpt>
   <trkpt lat="42.244865003382195" lon="-71.47826500421063">
    <ele>94.37</ele>
   </trkpt>
   <trkpt lat="42.245180000000005" lon="-71.47739">
    <ele>95.99000000000001</ele>
   </trkpt>
   <trkpt lat="42.24535" lon="-71.47703">
    <ele>95.31</ele>
   </trkpt>
   <trkpt lat="42.245520000000006" lon="-71.47673">
    <ele>94.02000000000001</ele>
   </trkpt>
   <trkpt lat="42.245940000000004" lon="-71.47616000000001">
    <ele>91.33000000000001</ele>
   </trkpt>
   <trkpt lat="42.24647" lon="-71.47557">
    <ele>86.81000000000002</ele>
   </trkpt>
   <trkpt lat="42.246900000000004" lon="-71.47512">
    <ele>83.64</ele>
   </trkpt>
   <trkpt lat="42.24709" lon="-71.47501000000001">
    <ele>82.55000000000001</ele>
   </trkpt>
   <trkpt lat="42.24779" lon="-71.47466">
    <ele>80.14</ele>
   </trkpt>
   <trkpt lat="42.24813" lon="-71.47444">
    <ele>79.17999999999999</ele>
   </trkpt>
   <trkpt lat="42.24877" lon="-71.47381">
    <ele>76.24</ele>
   </trkpt>
   <trkpt lat="42.24898" lon="-71.47363">
    <ele>76.24</ele>
   </trkpt>
   <trkpt lat="42.24972" lon="-71.47307">
    <ele>74.82000000000001</ele>
   </trkpt>
   <trkpt lat="42.25048000124802" lon="-71.47252000667449">
    <ele>74.76</ele>
   </trkpt>
   <trkpt lat="42.25124" lon="-71.47197">
    <ele>74.39000000000001</ele>
   </trkpt>
   <trkpt lat="42.251450000000006" lon="-71.47175">
    <ele>74.43</ele>
   </trkpt>
   <trkpt lat="42.25208500288169" lon="-71.47092500840257">
    <ele>74.54</ele>
   </trkpt>
   <trkpt lat="42.252720000000004" lon="-71.4701">
    <ele>70.31000000000002</ele>
   </trkpt>
   <trkpt lat="42.25323" lon="-71.46953">
    <ele>68.34</ele>
   </trkpt>
   <trkpt lat="42.25373000101063" lon="-71.46903000403908">
    <ele>66.89</ele>
   </trkpt>
   <trkpt lat="42.25423000000001" lon="-71.46853">
    <ele>65.97</ele>
   </trkpt>
   <trkpt lat="42.25489" lon="-71.46791">
    <ele>64.59</ele>
   </trkpt>
   <trkpt lat="42.25506" lon="-71.46773">
    <ele>63.72</ele>
   </trkpt>
   <trkpt lat="42.25531" lon="-71.46740000000001">
    <ele>62.32000000000001</ele>
   </trkpt>
   <trkpt lat="42.25547" lon="-71.46703000000001">
    <ele>61.18000000000001</ele>
   </trkpt>
   <trkpt lat="42.25554" lon="-71.46674">
    <ele>60.03000000000001</ele>
   </trkpt>
   <trkpt lat="42.25558" lon="-71.46617">
    <ele>59.190000000000005</ele>
   </trkpt>
   <trkpt lat="42.25569" lon="-71.46546000000001">
    <ele>59.78000000000001</ele>
   </trkpt>
   <trkpt lat="42.25589" lon="-71.4646">
    <ele>59.370000000000005</ele>
   </trkpt>
   <trkpt lat="42.256130000000006" lon="-71.46368000000001">
    <ele>58.06000000000001</ele>
   </trkpt>
   <trkpt lat="42.25643001245353" lon="-71.46270251393946">
    <ele>56.1</ele>
   </trkpt>
   <trkpt lat="42.25673001660705" lon="-71.4617250185786">
    <ele>55.21</ele>
   </trkpt>
   <trkpt lat="42.257030012460426" lon="-71.46074751391747">
    <ele>55.18000000000001</ele>
   </trkpt>
   <trkpt lat="42.25733" lon="-71.45977">
    <ele>55.09</ele>
   </trkpt>
   <trkpt lat="42.25756333858723" lon="-71.45899333903428">
    <ele>54.84</ele>
   </trkpt>
   <trkpt lat="42.25779667193461" lon="-71.45821667232097">
    <ele>54.11000000000001</ele>
   </trkpt>
   <trkpt lat="42.258030000000005" lon="-71.45744">
    <ele>53.59</ele>
   </trkpt>
   <trkpt lat="42.258250000000004" lon="-71.45653">
    <ele>53.33</ele>
   </trkpt>
   <trkpt lat="42.25848000580369" lon="-71.45537500416481">
    <ele>53.550000000000004</ele>
   </trkpt>
   <trkpt lat="42.25871" lon="-71.45422">
    <ele>55.09</ele>
   </trkpt>
   <trkpt lat="42.25887" lon="-71.45367">
    <ele>55.43000000000001</ele>
   </trkpt>
   <trkpt lat="42.259350000000005" lon="-71.45272">
    <ele>54.290000000000006</ele>
   </trkpt>
   <trkpt lat="42.25983" lon="-71.45184">
    <ele>54.050000000000004</ele>
   </trkpt>
   <trkpt lat="42.260000000000005" lon="-71.45156">
    <ele>54.050000000000004</ele>
   </trkpt>
   <trkpt lat="42.260450000000006" lon="-71.45093">
    <ele>54.6</ele>
   </trkpt>
   <trkpt lat="42.26108000000001" lon="-71.45017">
    <ele>56.36000000000001</ele>
   </trkpt>
   <trkpt lat="42.26153" lon="-71.44980000000001">
    <ele>58.330000000000005</ele>
   </trkpt>
   <trkpt lat="42.26165" lon="-71.44978">
    <ele>58.330000000000005</ele>
   </trkpt>
   <trkpt lat="42.26218" lon="-71.44955">
    <ele>60.02</ele>
   </trkpt>
   <trkpt lat="42.26256" lon="-71.44933">
    <ele>61.31</ele>
   </trkpt>
   <trkpt lat="42.262840000000004" lon="-71.4491">
    <ele>61.96000000000001</ele>
   </trkpt>
   <trkpt lat="42.26328" lon="-71.44856">
    <ele>62.910000000000004</ele>
   </trkpt>
   <trkpt lat="42.26352000000001" lon="-71.44829">
    <ele>63.15000000000001</ele>
   </trkpt>
   <trkpt lat="42.26429" lon="-71.44771">
    <ele>64.47</ele>
   </trkpt>
   <trkpt lat="42.26498" lon="-71.44695">
    <ele>65.43</ele>
   </trkpt>
   <trkpt lat="42.265170000000005" lon="-71.44681">
    <ele>65.43</ele>
   </trkpt>
   <trkpt lat="42.26552" lon="-71.44659">
    <ele>65.39</ele>
   </trkpt>
   <trkpt lat="42.266200000000005" lon="-71.44622000000001">
    <ele>65.65</ele>
   </trkpt>
   <trkpt lat="42.26682000053248" lon="-71.44592000288199">
    <ele>65.82000000000001</ele>
   </trkpt>
   <trkpt lat="42.26744" lon="-71.44562">
    <ele>65.79</ele>
   </trkpt>
   <trkpt lat="42.267880000000005" lon="-71.44543">
    <ele>64.52000000000001</ele>
   </trkpt>
   <trkpt lat="42.26848000042839" lon="-71.44520333765506">
    <ele>61.89000000000001</ele>
   </trkpt>
   <trkpt lat="42.26908000041045" lon="-71.44497667099523">
    <ele>60.81</ele>
   </trkpt>
   <trkpt lat="42.26968" lon="-71.44475">
    <ele>58.34</ele>
   </trkpt>
   <trkpt lat="42.269850000000005" lon="-71.44463">
    <ele>58.0</ele>
   </trkpt>
   <trkpt lat="42.27061500175333" lon="-71.44400000762191">
    <ele>60.11</ele>
   </trkpt>
   <trkpt lat="42.27138" lon="-71.44337">
    <ele>61.59</ele>
   </trkpt>
   <trkpt lat="42.27161" lon="-71.4431">
    <ele>61.75000000000001</ele>
   </trkpt>
   <trkpt lat="42.27174" lon="-71.44287">
    <ele>61.75000000000001</ele>
   </trkpt>
   <trkpt lat="42.27217" lon="-71.44185">
    <ele>59.68</ele>
   </trkpt>
   <trkpt lat="42.27262" lon="-71.4409">
    <ele>56.92</ele>
   </trkpt>
   <trkpt lat="42.27291500160487" lon="-71.44032500236233">
    <ele>56.42</ele>
   </trkpt>
   <trkpt lat="42.273210000000006" lon="-71.43975">
    <ele>56.580000000000005</ele>
   </trkpt>
   <trkpt lat="42.273600002279125" lon="-71.43905000406097">
    <ele>56.400000000000006</ele>
   </trkpt>
   <trkpt lat="42.273990000000005" lon="-71.43835">
    <ele>55.96</ele>
   </trkpt>
   <trkpt lat="42.274100000000004" lon="-71.43805">
    <ele>56.400000000000006</ele>
   </trkpt>
   <trkpt lat="42.274210000000004" lon="-71.43764">
    <ele>57.07</ele>
   </trkpt>
   <trkpt lat="42.27425" lon="-71.43733">
    <ele>58.480000000000004</ele>
   </trkpt>
   <trkpt lat="42.27425" lon="-71.43701">
    <ele>59.07</ele>
   </trkpt>
   <trkpt lat="42.274210000000004" lon="-71.43660000000001">
    <ele>59.60000000000001</ele>
   </trkpt>
   <trkpt lat="42.27405000264198" lon="-71.4358149978371">
    <ele>59.4</ele>
   </trkpt>
   <trkpt lat="42.27389" lon="-71.43503000000001">
    <ele>58.56000000000001</ele>
   </trkpt>
   <trkpt lat="42.273775002033496" lon="-71.43434499872252">
    <ele>57.480000000000004</ele>
   </trkpt>
   <trkpt lat="42.27366000000001" lon="-71.43366">
    <ele>55.18000000000001</ele>
   </trkpt>
   <trkpt lat="42.273540000000004" lon="-71.43309">
    <ele>54.64</ele>
   </trkpt>
   <trkpt lat="42.27336500166733" lon="-71.43247999848431">
    <ele>54.55</ele>
   </trkpt>
   <trkpt lat="42.27319000000001" lon="-71.43187">
    <ele>54.81</ele>
   </trkpt>
   <trkpt lat="42.27295" lon="-71.43128">
    <ele>56.690000000000005</ele>
   </trkpt>
   <trkpt lat="42.27262500149237" lon="-71.43068999692206">
    <ele>57.45000000000001</ele>
   </trkpt>
   <trkpt lat="42.2723" lon="-71.43010000000001">
    <ele>56.480000000000004</ele>
   </trkpt>
   <trkpt lat="42.272200000000005" lon="-71.42985">
    <ele>55.910000000000004</ele>
   </trkpt>
   <trkpt lat="42.27216000000001" lon="-71.42970000000001">
    <ele>55.690000000000005</ele>
   </trkpt>
   <trkpt lat="42.27214" lon="-71.42949">
    <ele>55.690000000000005</ele>
   </trkpt>
   <trkpt lat="42.27215" lon="-71.42926">
    <ele>55.43000000000001</ele>
   </trkpt>
   <trkpt lat="42.272220000000004" lon="-71.429">
    <ele>54.970000000000006</ele>
   </trkpt>
   <trkpt lat="42.272310000000004" lon="-71.42878">
    <ele>54.970000000000006</ele>
   </trkpt>
   <trkpt lat="42.27263000153971" lon="-71.42816500332066">
    <ele>52.95</ele>
   </trkpt>
   <trkpt lat="42.27295" lon="-71.42755000000001">
    <ele>51.5</ele>
   </trkpt>
   <trkpt lat="42.273436674498306" lon="-71.42660001468789">
    <ele>51.28000000000001</ele>
   </trkpt>
   <trkpt lat="42.27392334115657" lon="-71.42565001470456">
    <ele>51.550000000000004</ele>
   </trkpt>
   <trkpt lat="42.27441" lon="-71.4247">
    <ele>49.89</ele>
   </trkpt>
   <trkpt lat="42.27472334218868" lon="-71.42369001006371">
    <ele>48.080000000000005</ele>
   </trkpt>
   <trkpt lat="42.275036675515636" lon="-71.42268001008442">
    <ele>48.49</ele>
   </trkpt>
   <trkpt lat="42.27535" lon="-71.42167">
    <ele>49.300000000000004</ele>
   </trkpt>
   <trkpt lat="42.27556000256981" lon="-71.42090000258604">
    <ele>49.81000000000001</ele>
   </trkpt>
   <trkpt lat="42.27577" lon="-71.42013">
    <ele>49.910000000000004</ele>
   </trkpt>
   <trkpt lat="42.276065004498676" lon="-71.41911500466946">
    <ele>49.61</ele>
   </trkpt>
   <trkpt lat="42.276360000000004" lon="-71.41810000000001">
    <ele>49.800000000000004</ele>
   </trkpt>
   <trkpt lat="42.27658333879927" lon="-71.41730667229545">
    <ele>50.34</ele>
   </trkpt>
   <trkpt lat="42.276806672131016" lon="-71.41651333896786">
    <ele>50.34</ele>
   </trkpt>
   <trkpt lat="42.27703" lon="-71.41572000000001">
    <ele>49.99000000000001</ele>
   </trkpt>
   <trkpt lat="42.2771850021937" lon="-71.41501500157577">
    <ele>49.52</ele>
   </trkpt>
   <trkpt lat="42.27734" lon="-71.41431">
    <ele>49.260000000000005</ele>
   </trkpt>
   <trkpt lat="42.27751667280542" lon="-71.41347000466692">
    <ele>48.550000000000004</ele>
   </trkpt>
   <trkpt lat="42.277693339481154" lon="-71.41263000462394">
    <ele>48.24</ele>
   </trkpt>
   <trkpt lat="42.27787" lon="-71.41179000000001">
    <ele>48.14</ele>
   </trkpt>
   <trkpt lat="42.27808000535006" lon="-71.41068000370836">
    <ele>48.120000000000005</ele>
   </trkpt>
   <trkpt lat="42.278290000000005" lon="-71.40957">
    <ele>48.49</ele>
   </trkpt>
   <trkpt lat="42.27853502564957" lon="-71.40848335444133">
    <ele>48.43</ele>
   </trkpt>
   <trkpt lat="42.27878004104111" lon="-71.40739670043219">
    <ele>47.540000000000006</ele>
   </trkpt>
   <trkpt lat="42.27902504617445" lon="-71.4063100379728">
    <ele>47.220000000000006</ele>
   </trkpt>
   <trkpt lat="42.27927004104943" lon="-71.40522336706337">
    <ele>48.440000000000005</ele>
   </trkpt>
   <trkpt lat="42.279515025665866" lon="-71.40413668770415">
    <ele>49.13</ele>
   </trkpt>
   <trkpt lat="42.27976" lon="-71.40305000000001">
    <ele>48.38</ele>
   </trkpt>
   <trkpt lat="42.2800166774478" lon="-71.40193667567988">
    <ele>47.64</ele>
   </trkpt>
   <trkpt lat="42.28027334412764" lon="-71.40082334228963">
    <ele>47.14</ele>
   </trkpt>
   <trkpt lat="42.280530000000006" lon="-71.39971">
    <ele>46.75000000000001</ele>
   </trkpt>
   <trkpt lat="42.280750013611765" lon="-71.39868751076722">
    <ele>46.56</ele>
   </trkpt>
   <trkpt lat="42.28097001814096" lon="-71.39766501439404">
    <ele>46.85</ele>
   </trkpt>
   <trkpt lat="42.28119001358746" lon="-71.39664251088065">
    <ele>48.57</ele>
   </trkpt>
   <trkpt lat="42.28141" lon="-71.39562000000001">
    <ele>51.57</ele>
   </trkpt>
   <trkpt lat="42.281600000000005" lon="-71.39461">
    <ele>55.980000000000004</ele>
   </trkpt>
   <trkpt lat="42.2817" lon="-71.39373">
    <ele>55.27</ele>
   </trkpt>
   <trkpt lat="42.28178002370333" lon="-71.39256200592835">
    <ele>50.59</ele>
   </trkpt>
   <trkpt lat="42.2818600355552" lon="-71.39139400889005">
    <ele>49.7</ele>
   </trkpt>
   <trkpt lat="42.28194003555554" lon="-71.39022600888553">
    <ele>48.56</ele>
   </trkpt>
   <trkpt lat="42.282020023704305" lon="-71.38905800591522">
    <ele>48.46</ele>
   </trkpt>
   <trkpt lat="42.28210000000001" lon="-71.38789">
    <ele>48.910000000000004</ele>
   </trkpt>
   <trkpt lat="42.28215835548808" lon="-71.38688000468035">
    <ele>50.46</ele>
   </trkpt>
   <trkpt lat="42.282216702114205" lon="-71.38587000748997">
    <ele>49.88</ele>
   </trkpt>
   <trkpt lat="42.28227503987834" lon="-71.38486000842913">
    <ele>48.720000000000006</ele>
   </trkpt>
   <trkpt lat="42.282333368780456" lon="-71.3838500074981">
    <ele>48.39</ele>
   </trkpt>
   <trkpt lat="42.28239168882051" lon="-71.38284000469717">
    <ele>48.470000000000006</ele>
   </trkpt>
   <trkpt lat="42.282450000000004" lon="-71.38183000000001">
    <ele>49.92</ele>
   </trkpt>
   <trkpt lat="42.28247500166734" lon="-71.38121000030512">
    <ele>50.14</ele>
   </trkpt>
   <trkpt lat="42.282500000000006" lon="-71.38059000000001">
    <ele>48.92</ele>
   </trkpt>
   <trkpt lat="42.28251501822142" lon="-71.37940750085069">
    <ele>47.03</ele>
   </trkpt>
   <trkpt lat="42.2825300242952" lon="-71.37822500113785">
    <ele>46.940000000000005</ele>
   </trkpt>
   <trkpt lat="42.282545018221285" lon="-71.37704250086198">
    <ele>44.63</ele>
   </trkpt>
   <trkpt lat="42.282560000000004" lon="-71.37586">
    <ele>45.08</ele>
   </trkpt>
   <trkpt lat="42.282610000000005" lon="-71.37536">
    <ele>45.720000000000006</ele>
   </trkpt>
   <trkpt lat="42.2827300027829" lon="-71.37456000150424">
    <ele>46.56</ele>
   </trkpt>
   <trkpt lat="42.28285" lon="-71.37376">
    <ele>47.1</ele>
   </trkpt>
   <trkpt lat="42.283036021409956" lon="-71.3726500130931">
    <ele>47.02</ele>
   </trkpt>
   <trkpt lat="42.28322203211632" lon="-71.37154001963187">
    <ele>45.96</ele>
   </trkpt>
   <trkpt lat="42.28340803211896" lon="-71.37043001961663">
    <ele>44.69</ele>
   </trkpt>
   <trkpt lat="42.283594021417734" lon="-71.36932001304768">
    <ele>44.58</ele>
   </trkpt>
   <trkpt lat="42.28378" lon="-71.36821">
    <ele>44.44</ele>
   </trkpt>
   <trkpt lat="42.28380000000001" lon="-71.36779">
    <ele>44.53000000000001</ele>
   </trkpt>
   <trkpt lat="42.28378" lon="-71.36748">
    <ele>44.65</ele>
   </trkpt>
   <trkpt lat="42.283710000000006" lon="-71.367">
    <ele>44.67</ele>
   </trkpt>
   <trkpt lat="42.28340334383793" lon="-71.36589998926578">
    <ele>44.54</ele>
   </trkpt>
   <trkpt lat="42.28309667716395" lon="-71.36479998923976">
    <ele>44.50000000000001</ele>
   </trkpt>
   <trkpt lat="42.282790000000006" lon="-71.36370000000001">
    <ele>45.65</ele>
   </trkpt>
   <trkpt lat="42.28255000473266" lon="-71.36265499597248">
    <ele>46.32000000000001</ele>
   </trkpt>
   <trkpt lat="42.28231" lon="-71.36161">
    <ele>47.5</ele>
   </trkpt>
   <trkpt lat="42.282230000000006" lon="-71.36117">
    <ele>49.14</ele>
   </trkpt>
   <trkpt lat="42.2822" lon="-71.36067">
    <ele>50.35</ele>
   </trkpt>
   <trkpt lat="42.282210001697806" lon="-71.3600450000333">
    <ele>51.21000000000001</ele>
   </trkpt>
   <trkpt lat="42.28222" lon="-71.35942">
    <ele>51.54</ele>
   </trkpt>
   <trkpt lat="42.28228" lon="-71.35884">
    <ele>51.730000000000004</ele>
   </trkpt>
   <trkpt lat="42.28241835750603" lon="-71.35778501158556">
    <ele>52.4</ele>
   </trkpt>
   <trkpt lat="42.282556705342905" lon="-71.3567300185379">
    <ele>53.35</ele>
   </trkpt>
   <trkpt lat="42.282695043510564" lon="-71.3556750208573">
    <ele>53.2</ele>
   </trkpt>
   <trkpt lat="42.282833372008916" lon="-71.35462001854401">
    <ele>52.010000000000005</ele>
   </trkpt>
   <trkpt lat="42.28297169083786" lon="-71.35356501159836">
    <ele>50.760000000000005</ele>
   </trkpt>
   <trkpt lat="42.28311" lon="-71.35251000000001">
    <ele>51.42000000000001</ele>
   </trkpt>
   <trkpt lat="42.283260005067284" lon="-71.35143000256573">
    <ele>52.370000000000005</ele>
   </trkpt>
   <trkpt lat="42.28341" lon="-71.35035">
    <ele>53.45</ele>
   </trkpt>
   <trkpt lat="42.283550010517324" lon="-71.34925000484522">
    <ele>53.65</ele>
   </trkpt>
   <trkpt lat="42.28369001052288" lon="-71.34815000480167">
    <ele>54.160000000000004</ele>
   </trkpt>
   <trkpt lat="42.28383" lon="-71.34705000000001">
    <ele>55.300000000000004</ele>
   </trkpt>
   <trkpt lat="42.283955002132316" lon="-71.3463600010143">
    <ele>55.78</ele>
   </trkpt>
   <trkpt lat="42.28408" lon="-71.34567000000001">
    <ele>56.230000000000004</ele>
   </trkpt>
   <trkpt lat="42.28427801843334" lon="-71.34464001294654">
    <ele>58.03</ele>
   </trkpt>
   <trkpt lat="42.28447602765034" lon="-71.34361001941859">
    <ele>57.830000000000005</ele>
   </trkpt>
   <trkpt lat="42.28467402765084" lon="-71.34258001941639">
    <ele>57.17</ele>
   </trkpt>
   <trkpt lat="42.28487201843473" lon="-71.34155001294013">
    <ele>57.040000000000006</ele>
   </trkpt>
   <trkpt lat="42.285070000000005" lon="-71.34052000000001">
    <ele>57.24</ele>
   </trkpt>
   <trkpt lat="42.285180000000004" lon="-71.34015000000001">
    <ele>57.370000000000005</ele>
   </trkpt>
   <trkpt lat="42.285521685105834" lon="-71.33922835835357">
    <ele>57.730000000000004</ele>
   </trkpt>
   <trkpt lat="42.285863362832195" lon="-71.33830670670986">
    <ele>57.75</ele>
   </trkpt>
   <trkpt lat="42.28620503317896" lon="-71.3373850450689">
    <ele>58.050000000000004</ele>
   </trkpt>
   <trkpt lat="42.286546696145926" lon="-71.33646337343066">
    <ele>58.39</ele>
   </trkpt>
   <trkpt lat="42.28688835173295" lon="-71.33554169179511">
    <ele>58.24000000000001</ele>
   </trkpt>
   <trkpt lat="42.28723" lon="-71.33462">
    <ele>58.17</ele>
   </trkpt>
   <trkpt lat="42.287663342262185" lon="-71.33360668058909">
    <ele>59.32</ele>
   </trkpt>
   <trkpt lat="42.28809667560368" lon="-71.33259334723685">
    <ele>60.21000000000001</ele>
   </trkpt>
   <trkpt lat="42.28853" lon="-71.33158">
    <ele>64.58</ele>
   </trkpt>
   <trkpt lat="42.28902601508738" lon="-71.33064802936435">
    <ele>63.69000000000001</ele>
   </trkpt>
   <trkpt lat="42.28952202262886" lon="-71.32971604405142">
    <ele>62.57</ele>
   </trkpt>
   <trkpt lat="42.290018022624174" lon="-71.32878404406094">
    <ele>63.07</ele>
   </trkpt>
   <trkpt lat="42.290514015073086" lon="-71.32785202939267">
    <ele>60.47</ele>
   </trkpt>
   <trkpt lat="42.29101" lon="-71.32692">
    <ele>56.92</ele>
   </trkpt>
   <trkpt lat="42.29150751073352" lon="-71.32601252150153">
    <ele>55.86000000000001</ele>
   </trkpt>
   <trkpt lat="42.29200501431246" lon="-71.32510502866714">
    <ele>55.21</ele>
   </trkpt>
   <trkpt lat="42.29250251073661" lon="-71.32419752149657">
    <ele>55.510000000000005</ele>
   </trkpt>
   <trkpt lat="42.293000000000006" lon="-71.32329">
    <ele>55.18000000000001</ele>
   </trkpt>
   <trkpt lat="42.293200000000006" lon="-71.32289">
    <ele>54.86000000000001</ele>
   </trkpt>
   <trkpt lat="42.29339" lon="-71.32245">
    <ele>53.92</ele>
   </trkpt>
   <trkpt lat="42.293690000000005" lon="-71.32153000000001">
    <ele>52.88</ele>
   </trkpt>
   <trkpt lat="42.29391500243157" lon="-71.32080000222926">
    <ele>51.97</ele>
   </trkpt>
   <trkpt lat="42.294140000000006" lon="-71.32007">
    <ele>50.09</ele>
   </trkpt>
   <trkpt lat="42.29437000337287" lon="-71.31919500301639">
    <ele>45.7</ele>
   </trkpt>
   <trkpt lat="42.2946" lon="-71.31832">
    <ele>43.59</ele>
   </trkpt>
   <trkpt lat="42.29494500481791" lon="-71.3172700056644">
    <ele>44.660000000000004</ele>
   </trkpt>
   <trkpt lat="42.29529" lon="-71.31622">
    <ele>47.66</ele>
   </trkpt>
   <trkpt lat="42.295460000000006" lon="-71.31555">
    <ele>48.93</ele>
   </trkpt>
   <trkpt lat="42.29561000295913" lon="-71.31472000216168">
    <ele>49.49</ele>
   </trkpt>
   <trkpt lat="42.29576" lon="-71.31389">
    <ele>50.71</ele>
   </trkpt>
   <trkpt lat="42.2959" lon="-71.31286">
    <ele>50.97</ele>
   </trkpt>
   <trkpt lat="42.29603" lon="-71.31174">
    <ele>50.690000000000005</ele>
   </trkpt>
   <trkpt lat="42.29607000708891" lon="-71.31083666782384">
    <ele>50.93</ele>
   </trkpt>
   <trkpt lat="42.296110007088494" lon="-71.30993333450002">
    <ele>51.160000000000004</ele>
   </trkpt>
   <trkpt lat="42.296150000000004" lon="-71.30903">
    <ele>50.830000000000005</ele>
   </trkpt>
   <trkpt lat="42.296170002378865" lon="-71.30829000023007">
    <ele>50.47</ele>
   </trkpt>
   <trkpt lat="42.29619" lon="-71.30755">
    <ele>50.080000000000005</ele>
   </trkpt>
   <trkpt lat="42.29620500421487" lon="-71.30656500021477">
    <ele>49.400000000000006</ele>
   </trkpt>
   <trkpt lat="42.296220000000005" lon="-71.30558">
    <ele>47.43000000000001</ele>
   </trkpt>
   <trkpt lat="42.29621000189108" lon="-71.30491999982104">
    <ele>45.21000000000001</ele>
   </trkpt>
   <trkpt lat="42.296200000000006" lon="-71.30426">
    <ele>43.06</ele>
   </trkpt>
   <trkpt lat="42.29614801952148" lon="-71.30319999646275">
    <ele>41.440000000000005</ele>
   </trkpt>
   <trkpt lat="42.296096029281294" lon="-71.30213999467551">
    <ele>42.68</ele>
   </trkpt>
   <trkpt lat="42.296044029279464" lon="-71.30107999463864">
    <ele>44.86000000000001</ele>
   </trkpt>
   <trkpt lat="42.29599201951604" lon="-71.30001999635243">
    <ele>46.55</ele>
   </trkpt>
   <trkpt lat="42.29594" lon="-71.29896000000001">
    <ele>46.45</ele>
   </trkpt>
   <trkpt lat="42.29592" lon="-71.29854">
    <ele>46.03</ele>
   </trkpt>
   <trkpt lat="42.29594" lon="-71.29815">
    <ele>45.910000000000004</ele>
   </trkpt>
   <trkpt lat="42.29599000165754" lon="-71.29753999998198">
    <ele>45.27</ele>
   </trkpt>
   <trkpt lat="42.296040000000005" lon="-71.29693">
    <ele>45.22</ele>
   </trkpt>
   <trkpt lat="42.2961850133614" lon="-71.2959175069808">
    <ele>45.00000000000001</ele>
   </trkpt>
   <trkpt lat="42.296330017816494" lon="-71.2949050092988">
    <ele>45.09</ele>
   </trkpt>
   <trkpt lat="42.29647501336524" lon="-71.2938925069543">
    <ele>43.15</ele>
   </trkpt>
   <trkpt lat="42.296620000000004" lon="-71.29288000000001">
    <ele>41.410000000000004</ele>
   </trkpt>
   <trkpt lat="42.296710000000004" lon="-71.29253">
    <ele>41.150000000000006</ele>
   </trkpt>
   <trkpt lat="42.29692500165365" lon="-71.29192500188638">
    <ele>40.88</ele>
   </trkpt>
   <trkpt lat="42.297140000000006" lon="-71.29132">
    <ele>40.449999999999996</ele>
   </trkpt>
   <trkpt lat="42.29735000162653" lon="-71.29071000200472">
    <ele>40.25</ele>
   </trkpt>
   <trkpt lat="42.297560000000004" lon="-71.29010000000001">
    <ele>40.160000000000004</ele>
   </trkpt>
   <trkpt lat="42.29755" lon="-71.29011000000001">
    <ele>40.160000000000004</ele>
   </trkpt>
   <trkpt lat="42.2978" lon="-71.28969000000001">
    <ele>40.14</ele>
   </trkpt>
   <trkpt lat="42.29798" lon="-71.28949">
    <ele>40.370000000000005</ele>
   </trkpt>
   <trkpt lat="42.29818" lon="-71.28931">
    <ele>40.81</ele>
   </trkpt>
   <trkpt lat="42.29888666867328" lon="-71.28883001077014">
    <ele>42.84</ele>
   </trkpt>
   <trkpt lat="42.299593335344895" lon="-71.28835001076696">
    <ele>45.050000000000004</ele>
   </trkpt>
   <trkpt lat="42.3003" lon="-71.28787000000001">
    <ele>45.17</ele>
   </trkpt>
   <trkpt lat="42.30089" lon="-71.28746000000001">
    <ele>44.480000000000004</ele>
   </trkpt>
   <trkpt lat="42.301590000000004" lon="-71.28692000000001">
    <ele>44.45</ele>
   </trkpt>
   <trkpt lat="42.30223" lon="-71.28637">
    <ele>44.42</ele>
   </trkpt>
   <trkpt lat="42.30267500093659" lon="-71.28595000280775">
    <ele>42.25</ele>
   </trkpt>
   <trkpt lat="42.30312000000001" lon="-71.28553000000001">
    <ele>41.56</ele>
   </trkpt>
   <trkpt lat="42.303650000000005" lon="-71.28501">
    <ele>41.97</ele>
   </trkpt>
   <trkpt lat="42.303960000000004" lon="-71.28465">
    <ele>42.4</ele>
   </trkpt>
   <trkpt lat="42.304520005002956" lon="-71.28389001354101">
    <ele>43.58</ele>
   </trkpt>
   <trkpt lat="42.305080004987815" lon="-71.28313001356179">
    <ele>43.36</ele>
   </trkpt>
   <trkpt lat="42.305640000000004" lon="-71.28237">
    <ele>43.63</ele>
   </trkpt>
   <trkpt lat="42.306056669842945" lon="-71.28176334139496">
    <ele>43.96000000000001</ele>
   </trkpt>
   <trkpt lat="42.306473336488345" lon="-71.28115667475937">
    <ele>44.71000000000001</ele>
   </trkpt>
   <trkpt lat="42.30689" lon="-71.28055">
    <ele>46.68000000000001</ele>
   </trkpt>
   <trkpt lat="42.30739333742613" lon="-71.27986001109385">
    <ele>47.63</ele>
   </trkpt>
   <trkpt lat="42.30789667071587" lon="-71.27917001115374">
    <ele>48.260000000000005</ele>
   </trkpt>
   <trkpt lat="42.308400000000006" lon="-71.27848">
    <ele>48.39</ele>
   </trkpt>
   <trkpt lat="42.30879000094061" lon="-71.27805000251261">
    <ele>46.52</ele>
   </trkpt>
   <trkpt lat="42.309180000000005" lon="-71.27762">
    <ele>45.550000000000004</ele>
   </trkpt>
   <trkpt lat="42.309600000805965" lon="-71.27719000286632">
    <ele>45.38</ele>
   </trkpt>
   <trkpt lat="42.31002" lon="-71.27676000000001">
    <ele>45.62</ele>
   </trkpt>
   <trkpt lat="42.31065200649819" lon="-71.27614802458966">
    <ele>46.49</ele>
   </trkpt>
   <trkpt lat="42.31128400974246" lon="-71.27553603688973">
    <ele>46.290000000000006</ele>
   </trkpt>
   <trkpt lat="42.31191600973267" lon="-71.27492403689982">
    <ele>46.86000000000001</ele>
   </trkpt>
   <trkpt lat="42.312548006468674" lon="-71.27431202461943">
    <ele>47.68000000000001</ele>
   </trkpt>
   <trkpt lat="42.31318" lon="-71.2737">
    <ele>48.81</ele>
   </trkpt>
   <trkpt lat="42.31349" lon="-71.27338">
    <ele>49.230000000000004</ele>
   </trkpt>
   <trkpt lat="42.31364000000001" lon="-71.27317000000001">
    <ele>49.510000000000005</ele>
   </trkpt>
   <trkpt lat="42.31405000192439" lon="-71.27251000424796">
    <ele>50.050000000000004</ele>
   </trkpt>
   <trkpt lat="42.314460000000004" lon="-71.27185">
    <ele>50.27</ele>
   </trkpt>
   <trkpt lat="42.314920004198406" lon="-71.27115667676924">
    <ele>50.400000000000006</ele>
   </trkpt>
   <trkpt lat="42.31538000422028" lon="-71.27046334340307">
    <ele>50.99000000000001</ele>
   </trkpt>
   <trkpt lat="42.31584" lon="-71.26977000000001">
    <ele>51.440000000000005</ele>
   </trkpt>
   <trkpt lat="42.31636250748283" lon="-71.2690125188613">
    <ele>51.49</ele>
   </trkpt>
   <trkpt lat="42.31688500998036" lon="-71.26825502514406">
    <ele>51.65</ele>
   </trkpt>
   <trkpt lat="42.31740750749244" lon="-71.26749751884793">
    <ele>51.800000000000004</ele>
   </trkpt>
   <trkpt lat="42.317930000000004" lon="-71.26674000000001">
    <ele>52.11</ele>
   </trkpt>
   <trkpt lat="42.318430002405044" lon="-71.2659950059287">
    <ele>52.86000000000001</ele>
   </trkpt>
   <trkpt lat="42.31893" lon="-71.26525000000001">
    <ele>52.36</ele>
   </trkpt>
   <trkpt lat="42.31927" lon="-71.26484">
    <ele>51.59</ele>
   </trkpt>
   <trkpt lat="42.319390000000006" lon="-71.26471000000001">
    <ele>51.59</ele>
   </trkpt>
   <trkpt lat="42.319720000000004" lon="-71.26443">
    <ele>50.84</ele>
   </trkpt>
   <trkpt lat="42.319990000000004" lon="-71.26426000000001">
    <ele>49.730000000000004</ele>
   </trkpt>
   <trkpt lat="42.32052000020138" lon="-71.26398500238236">
    <ele>47.18000000000001</ele>
   </trkpt>
   <trkpt lat="42.32105000000001" lon="-71.26371">
    <ele>44.480000000000004</ele>
   </trkpt>
   <trkpt lat="42.32175000019129" lon="-71.26343500311341">
    <ele>40.2</ele>
   </trkpt>
   <trkpt lat="42.32245" lon="-71.26316">
    <ele>36.7</ele>
   </trkpt>
   <trkpt lat="42.322860000000006" lon="-71.26291">
    <ele>33.2</ele>
   </trkpt>
   <trkpt lat="42.32323" lon="-71.26266000000001">
    <ele>30.730000000000004</ele>
   </trkpt>
   <trkpt lat="42.32352" lon="-71.26244000000001">
    <ele>29.580000000000002</ele>
   </trkpt>
   <trkpt lat="42.32376" lon="-71.26223">
    <ele>27.37</ele>
   </trkpt>
   <trkpt lat="42.324205001101426" lon="-71.2617350034601">
    <ele>23.590000000000003</ele>
   </trkpt>
   <trkpt lat="42.324650000000005" lon="-71.26124">
    <ele>20.950000000000003</ele>
   </trkpt>
   <trkpt lat="42.32490000000001" lon="-71.26087000000001">
    <ele>20.41</ele>
   </trkpt>
   <trkpt lat="42.32502" lon="-71.26061">
    <ele>19.000000000000004</ele>
   </trkpt>
   <trkpt lat="42.325120000000005" lon="-71.26023">
    <ele>18.21</ele>
   </trkpt>
   <trkpt lat="42.325160000000004" lon="-71.25999">
    <ele>18.03</ele>
   </trkpt>
   <trkpt lat="42.325250004909655" lon="-71.25892500173387">
    <ele>17.640000000000004</ele>
   </trkpt>
   <trkpt lat="42.325340000000004" lon="-71.25786000000001">
    <ele>18.37</ele>
   </trkpt>
   <trkpt lat="42.325410000000005" lon="-71.25748">
    <ele>18.580000000000002</ele>
   </trkpt>
   <trkpt lat="42.32553" lon="-71.25702000000001">
    <ele>19.15</ele>
   </trkpt>
   <trkpt lat="42.32576" lon="-71.25639000000001">
    <ele>20.3</ele>
   </trkpt>
   <trkpt lat="42.32600500241086" lon="-71.25564000302136">
    <ele>21.310000000000002</ele>
   </trkpt>
   <trkpt lat="42.32625" lon="-71.25489">
    <ele>22.47</ele>
   </trkpt>
   <trkpt lat="42.32641" lon="-71.25457">
    <ele>24.84</ele>
   </trkpt>
   <trkpt lat="42.327000000000005" lon="-71.25379000000001">
    <ele>26.01</ele>
   </trkpt>
   <trkpt lat="42.327130000000004" lon="-71.25354">
    <ele>26.560000000000002</ele>
   </trkpt>
   <trkpt lat="42.327360000000006" lon="-71.25315">
    <ele>26.67</ele>
   </trkpt>
   <trkpt lat="42.32797000337552" lon="-71.25226500862125">
    <ele>28.600000000000005</ele>
   </trkpt>
   <trkpt lat="42.32858" lon="-71.25138000000001">
    <ele>33.5</ele>
   </trkpt>
   <trkpt lat="42.328860000000006" lon="-71.25099">
    <ele>34.800000000000004</ele>
   </trkpt>
   <trkpt lat="42.32898" lon="-71.25087">
    <ele>34.99</ele>
   </trkpt>
   <trkpt lat="42.32922000000001" lon="-71.2505">
    <ele>36.06</ele>
   </trkpt>
   <trkpt lat="42.329420000000006" lon="-71.25014">
    <ele>37.02</ele>
   </trkpt>
   <trkpt lat="42.329730000000005" lon="-71.24927000000001">
    <ele>38.7</ele>
   </trkpt>
   <trkpt lat="42.32983" lon="-71.24911">
    <ele>39.02</ele>
   </trkpt>
   <trkpt lat="42.330040000000004" lon="-71.24853">
    <ele>40.28</ele>
   </trkpt>
   <trkpt lat="42.33015" lon="-71.24843">
    <ele>40.260000000000005</ele>
   </trkpt>
   <trkpt lat="42.330630000000006" lon="-71.24802000000001">
    <ele>38.8</ele>
   </trkpt>
   <trkpt lat="42.33109500061289" lon="-71.24769000234042">
    <ele>35.92</ele>
   </trkpt>
   <trkpt lat="42.33156" lon="-71.24736">
    <ele>34.61</ele>
   </trkpt>
   <trkpt lat="42.332010000000004" lon="-71.24697">
    <ele>33.68</ele>
   </trkpt>
   <trkpt lat="42.332390000000004" lon="-71.2466">
    <ele>33.870000000000005</ele>
   </trkpt>
   <trkpt lat="42.33284500155483" lon="-71.24601500414457">
    <ele>35.050000000000004</ele>
   </trkpt>
   <trkpt lat="42.3333" lon="-71.24543">
    <ele>36.6</ele>
   </trkpt>
   <trkpt lat="42.33371" lon="-71.24487">
    <ele>36.9</ele>
   </trkpt>
   <trkpt lat="42.334320000000005" lon="-71.24408000000001">
    <ele>34.61</ele>
   </trkpt>
   <trkpt lat="42.334540000000004" lon="-71.24377000000001">
    <ele>34.07</ele>
   </trkpt>
   <trkpt lat="42.33496500173187" lon="-71.24314500417246">
    <ele>33.9</ele>
   </trkpt>
   <trkpt lat="42.335390000000004" lon="-71.24252">
    <ele>33.99</ele>
   </trkpt>
   <trkpt lat="42.33556" lon="-71.24231">
    <ele>34.09</ele>
   </trkpt>
   <trkpt lat="42.33567" lon="-71.24221">
    <ele>34.14</ele>
   </trkpt>
   <trkpt lat="42.336115000153164" lon="-71.24192000219037">
    <ele>34.64</ele>
   </trkpt>
   <trkpt lat="42.336560000000006" lon="-71.24163">
    <ele>35.02</ele>
   </trkpt>
   <trkpt lat="42.33706500039228" lon="-71.24132500245645">
    <ele>34.31</ele>
   </trkpt>
   <trkpt lat="42.33757000000001" lon="-71.24102">
    <ele>33.17</ele>
   </trkpt>
   <trkpt lat="42.33832" lon="-71.24061">
    <ele>32.52</ele>
   </trkpt>
   <trkpt lat="42.33876000020128" lon="-71.24035000187389">
    <ele>32.43</ele>
   </trkpt>
   <trkpt lat="42.339200000000005" lon="-71.24009000000001">
    <ele>31.8</ele>
   </trkpt>
   <trkpt lat="42.339670000000005" lon="-71.2398">
    <ele>31.05</ele>
   </trkpt>
   <trkpt lat="42.340050000000005" lon="-71.23955000000001">
    <ele>30.63</ele>
   </trkpt>
   <trkpt lat="42.34033" lon="-71.23935">
    <ele>30.37</ele>
   </trkpt>
   <trkpt lat="42.340700000000005" lon="-71.239">
    <ele>29.85</ele>
   </trkpt>
   <trkpt lat="42.34104000000001" lon="-71.23864">
    <ele>29.26</ele>
   </trkpt>
   <trkpt lat="42.34104000000001" lon="-71.23863">
    <ele>29.25</ele>
   </trkpt>
   <trkpt lat="42.34059500154113" lon="-71.2380049953577">
    <ele>28.560000000000002</ele>
   </trkpt>
   <trkpt lat="42.34015" lon="-71.23738">
    <ele>28.130000000000003</ele>
   </trkpt>
   <trkpt lat="42.33997" lon="-71.23707">
    <ele>28.580000000000002</ele>
   </trkpt>
   <trkpt lat="42.339670000000005" lon="-71.23631">
    <ele>30.88</ele>
   </trkpt>
   <trkpt lat="42.33952" lon="-71.23580000000001">
    <ele>33.57</ele>
   </trkpt>
   <trkpt lat="42.33941" lon="-71.23527">
    <ele>35.93</ele>
   </trkpt>
   <trkpt lat="42.33932" lon="-71.23454000000001">
    <ele>38.74</ele>
   </trkpt>
   <trkpt lat="42.33930000198187" lon="-71.23386499986636">
    <ele>41.84</ele>
   </trkpt>
   <trkpt lat="42.33928" lon="-71.23319000000001">
    <ele>44.09</ele>
   </trkpt>
   <trkpt lat="42.339270005985206" lon="-71.23235999967967">
    <ele>47.95</ele>
   </trkpt>
   <trkpt lat="42.33926000598452" lon="-71.23152999962326">
    <ele>50.13</ele>
   </trkpt>
   <trkpt lat="42.33925000000001" lon="-71.2307">
    <ele>49.230000000000004</ele>
   </trkpt>
   <trkpt lat="42.33919" lon="-71.22965">
    <ele>44.97</ele>
   </trkpt>
   <trkpt lat="42.33914" lon="-71.22913000000001">
    <ele>43.870000000000005</ele>
   </trkpt>
   <trkpt lat="42.33897" lon="-71.22835">
    <ele>44.26</ele>
   </trkpt>
   <trkpt lat="42.33876" lon="-71.22767">
    <ele>46.49</ele>
   </trkpt>
   <trkpt lat="42.338640000000005" lon="-71.22739">
    <ele>47.34</ele>
   </trkpt>
   <trkpt lat="42.338330000000006" lon="-71.22677">
    <ele>48.84</ele>
   </trkpt>
   <trkpt lat="42.337790000000005" lon="-71.22584">
    <ele>48.99</ele>
   </trkpt>
   <trkpt lat="42.337470001015895" lon="-71.2253449974059">
    <ele>48.34</ele>
   </trkpt>
   <trkpt lat="42.33715" lon="-71.22485">
    <ele>47.24</ele>
   </trkpt>
   <trkpt lat="42.337030000000006" lon="-71.22462">
    <ele>47.24</ele>
   </trkpt>
   <trkpt lat="42.336870000000005" lon="-71.22423">
    <ele>46.09</ele>
   </trkpt>
   <trkpt lat="42.33673" lon="-71.22365">
    <ele>44.89000000000001</ele>
   </trkpt>
   <trkpt lat="42.336670000000005" lon="-71.22313000000001">
    <ele>44.89000000000001</ele>
   </trkpt>
   <trkpt lat="42.33668" lon="-71.22213">
    <ele>44.01</ele>
   </trkpt>
   <trkpt lat="42.33672000000001" lon="-71.22153">
    <ele>43.78000000000001</ele>
   </trkpt>
   <trkpt lat="42.33679" lon="-71.22113">
    <ele>43.65</ele>
   </trkpt>
   <trkpt lat="42.336940000000006" lon="-71.22063">
    <ele>43.59</ele>
   </trkpt>
   <trkpt lat="42.337160000000004" lon="-71.22012000000001">
    <ele>43.60000000000001</ele>
   </trkpt>
   <trkpt lat="42.33731" lon="-71.21985000000001">
    <ele>43.65</ele>
   </trkpt>
   <trkpt lat="42.33747" lon="-71.21951">
    <ele>43.9</ele>
   </trkpt>
   <trkpt lat="42.33751" lon="-71.21933">
    <ele>43.92</ele>
   </trkpt>
   <trkpt lat="42.33755" lon="-71.21899">
    <ele>43.68</ele>
   </trkpt>
   <trkpt lat="42.337540000000004" lon="-71.21870000000001">
    <ele>43.35000000000001</ele>
   </trkpt>
   <trkpt lat="42.33749" lon="-71.21839">
    <ele>43.33</ele>
   </trkpt>
   <trkpt lat="42.33726500162119" lon="-71.21776499755302">
    <ele>43.46000000000001</ele>
   </trkpt>
   <trkpt lat="42.33704" lon="-71.21714">
    <ele>42.79</ele>
   </trkpt>
   <trkpt lat="42.33684" lon="-71.21629">
    <ele>41.89</ele>
   </trkpt>
   <trkpt lat="42.33684" lon="-71.21592000000001">
    <ele>41.440000000000005</ele>
   </trkpt>
   <trkpt lat="42.336890000000004" lon="-71.21562">
    <ele>41.32</ele>
   </trkpt>
   <trkpt lat="42.33695" lon="-71.21544">
    <ele>41.220000000000006</ele>
   </trkpt>
   <trkpt lat="42.33731" lon="-71.21453000000001">
    <ele>40.57</ele>
   </trkpt>
   <trkpt lat="42.337590000000006" lon="-71.21392">
    <ele>40.470000000000006</ele>
   </trkpt>
   <trkpt lat="42.337740000000004" lon="-71.21348">
    <ele>40.21</ele>
   </trkpt>
   <trkpt lat="42.33784" lon="-71.21312">
    <ele>40.0</ele>
   </trkpt>
   <trkpt lat="42.337970000000006" lon="-71.21245">
    <ele>38.74</ele>
   </trkpt>
   <trkpt lat="42.338010000000004" lon="-71.21201">
    <ele>37.64</ele>
   </trkpt>
   <trkpt lat="42.338010000000004" lon="-71.21145">
    <ele>35.300000000000004</ele>
   </trkpt>
   <trkpt lat="42.33798" lon="-71.21112000000001">
    <ele>34.95</ele>
   </trkpt>
   <trkpt lat="42.33789" lon="-71.21042">
    <ele>34.5</ele>
   </trkpt>
   <trkpt lat="42.33787" lon="-71.20996000000001">
    <ele>34.1</ele>
   </trkpt>
   <trkpt lat="42.33789" lon="-71.20957">
    <ele>33.89</ele>
   </trkpt>
   <trkpt lat="42.33796" lon="-71.20907000000001">
    <ele>33.45</ele>
   </trkpt>
   <trkpt lat="42.338060000000006" lon="-71.20867000000001">
    <ele>32.74</ele>
   </trkpt>
   <trkpt lat="42.33843" lon="-71.20759000000001">
    <ele>31.8</ele>
   </trkpt>
   <trkpt lat="42.33851000000001" lon="-71.20727000000001">
    <ele>31.580000000000002</ele>
   </trkpt>
   <trkpt lat="42.338570000000004" lon="-71.20676">
    <ele>31.560000000000006</ele>
   </trkpt>
   <trkpt lat="42.33860000000001" lon="-71.20588000000001">
    <ele>33.96</ele>
   </trkpt>
   <trkpt lat="42.33852" lon="-71.20514">
    <ele>37.68000000000001</ele>
   </trkpt>
   <trkpt lat="42.33847" lon="-71.20484">
    <ele>38.43000000000001</ele>
   </trkpt>
   <trkpt lat="42.338330000000006" lon="-71.20429">
    <ele>41.45</ele>
   </trkpt>
   <trkpt lat="42.33798" lon="-71.20319">
    <ele>45.33</ele>
   </trkpt>
   <trkpt lat="42.33787" lon="-71.20259">
    <ele>46.150000000000006</ele>
   </trkpt>
   <trkpt lat="42.337810000000005" lon="-71.20198">
    <ele>46.52</ele>
   </trkpt>
   <trkpt lat="42.3378" lon="-71.20156">
    <ele>46.830000000000005</ele>
   </trkpt>
   <trkpt lat="42.33786500384248" lon="-71.20062000091848">
    <ele>47.120000000000005</ele>
   </trkpt>
   <trkpt lat="42.33793" lon="-71.19968">
    <ele>47.93000000000001</ele>
   </trkpt>
   <trkpt lat="42.33791" lon="-71.19879">
    <ele>49.99000000000001</ele>
   </trkpt>
   <trkpt lat="42.33787" lon="-71.19839">
    <ele>50.53</ele>
   </trkpt>
   <trkpt lat="42.33771" lon="-71.19785">
    <ele>49.970000000000006</ele>
   </trkpt>
   <trkpt lat="42.337590000000006" lon="-71.19758">
    <ele>48.74</ele>
   </trkpt>
   <trkpt lat="42.33731" lon="-71.19708">
    <ele>48.080000000000005</ele>
   </trkpt>
   <trkpt lat="42.336890000000004" lon="-71.19654">
    <ele>47.260000000000005</ele>
   </trkpt>
   <trkpt lat="42.33637" lon="-71.19603000000001">
    <ele>46.48</ele>
   </trkpt>
   <trkpt lat="42.33614" lon="-71.19583">
    <ele>46.13</ele>
   </trkpt>
   <trkpt lat="42.33601" lon="-71.19569">
    <ele>45.86000000000001</ele>
   </trkpt>
   <trkpt lat="42.33592" lon="-71.19551">
    <ele>45.86000000000001</ele>
   </trkpt>
   <trkpt lat="42.33578000000001" lon="-71.19516">
    <ele>45.06</ele>
   </trkpt>
   <trkpt lat="42.33572" lon="-71.19478000000001">
    <ele>45.06</ele>
   </trkpt>
   <trkpt lat="42.33572" lon="-71.19456000000001">
    <ele>45.040000000000006</ele>
   </trkpt>
   <trkpt lat="42.335820000000005" lon="-71.19395">
    <ele>45.11000000000001</ele>
   </trkpt>
   <trkpt lat="42.336000000000006" lon="-71.19333">
    <ele>45.52</ele>
   </trkpt>
   <trkpt lat="42.33612" lon="-71.19288">
    <ele>45.57000000000001</ele>
   </trkpt>
   <trkpt lat="42.33615" lon="-71.19271">
    <ele>45.550000000000004</ele>
   </trkpt>
   <trkpt lat="42.336200000000005" lon="-71.19217">
    <ele>45.470000000000006</ele>
   </trkpt>
   <trkpt lat="42.33620334090262" lon="-71.19123666669658">
    <ele>45.34</ele>
   </trkpt>
   <trkpt lat="42.3362066742362" lon="-71.19030333329411">
    <ele>45.1</ele>
   </trkpt>
   <trkpt lat="42.33621" lon="-71.18937000000001">
    <ele>44.77</ele>
   </trkpt>
   <trkpt lat="42.3362550039163" lon="-71.18842000077662">
    <ele>44.980000000000004</ele>
   </trkpt>
   <trkpt lat="42.3363" lon="-71.18747">
    <ele>45.27</ele>
   </trkpt>
   <trkpt lat="42.33636000181201" lon="-71.1868200008751">
    <ele>46.150000000000006</ele>
   </trkpt>
   <trkpt lat="42.336420000000004" lon="-71.18617">
    <ele>48.470000000000006</ele>
   </trkpt>
   <trkpt lat="42.33651000180257" lon="-71.18553000075183">
    <ele>50.660000000000004</ele>
   </trkpt>
   <trkpt lat="42.336600000000004" lon="-71.18489000000001">
    <ele>51.5</ele>
   </trkpt>
   <trkpt lat="42.33662" lon="-71.1845">
    <ele>54.28</ele>
   </trkpt>
   <trkpt lat="42.33662" lon="-71.18405">
    <ele>54.28</ele>
   </trkpt>
   <trkpt lat="42.3365600029274" lon="-71.18322999930203">
    <ele>57.68</ele>
   </trkpt>
   <trkpt lat="42.3365" lon="-71.18241">
    <ele>61.910000000000004</ele>
   </trkpt>
   <trkpt lat="42.33637334333601" lon="-71.18133666228026">
    <ele>66.56</ele>
   </trkpt>
   <trkpt lat="42.33624667666193" lon="-71.18026332888417">
    <ele>71.65</ele>
   </trkpt>
   <trkpt lat="42.33612" lon="-71.17919">
    <ele>73.68</ele>
   </trkpt>
   <trkpt lat="42.33612" lon="-71.17836000000001">
    <ele>74.2</ele>
   </trkpt>
   <trkpt lat="42.336180000000006" lon="-71.17798">
    <ele>73.2</ele>
   </trkpt>
   <trkpt lat="42.336310000000005" lon="-71.17756">
    <ele>72.29</ele>
   </trkpt>
   <trkpt lat="42.33669000251419" lon="-71.17680000458277">
    <ele>70.41</ele>
   </trkpt>
   <trkpt lat="42.337070000000004" lon="-71.17604">
    <ele>72.2</ele>
   </trkpt>
   <trkpt lat="42.337140000000005" lon="-71.17582">
    <ele>72.78000000000002</ele>
   </trkpt>
   <trkpt lat="42.337230000000005" lon="-71.17536000000001">
    <ele>73.14000000000001</ele>
   </trkpt>
   <trkpt lat="42.33726" lon="-71.17514">
    <ele>73.03000000000002</ele>
   </trkpt>
   <trkpt lat="42.337270000000004" lon="-71.17462">
    <ele>72.2</ele>
   </trkpt>
   <trkpt lat="42.33724" lon="-71.17434">
    <ele>72.2</ele>
   </trkpt>
   <trkpt lat="42.33709" lon="-71.17341">
    <ele>71.21000000000001</ele>
   </trkpt>
   <trkpt lat="42.337070000000004" lon="-71.17302000000001">
    <ele>70.19</ele>
   </trkpt>
   <trkpt lat="42.33709" lon="-71.17269">
    <ele>69.85000000000001</ele>
   </trkpt>
   <trkpt lat="42.337180000000004" lon="-71.17224">
    <ele>68.95</ele>
   </trkpt>
   <trkpt lat="42.337360000000004" lon="-71.17189">
    <ele>68.05</ele>
   </trkpt>
   <trkpt lat="42.337650000000004" lon="-71.17154000000001">
    <ele>66.03</ele>
   </trkpt>
   <trkpt lat="42.33801000043318" lon="-71.17117000228428">
    <ele>64.92</ele>
   </trkpt>
   <trkpt lat="42.338370000000005" lon="-71.1708">
    <ele>62.83000000000001</ele>
   </trkpt>
   <trkpt lat="42.338570000000004" lon="-71.17057000000001">
    <ele>62.25000000000001</ele>
   </trkpt>
   <trkpt lat="42.33879" lon="-71.17022">
    <ele>60.77</ele>
   </trkpt>
   <trkpt lat="42.339000000000006" lon="-71.16983">
    <ele>58.730000000000004</ele>
   </trkpt>
   <trkpt lat="42.339130000000004" lon="-71.16955">
    <ele>56.36000000000001</ele>
   </trkpt>
   <trkpt lat="42.339290000000005" lon="-71.16914">
    <ele>55.580000000000005</ele>
   </trkpt>
   <trkpt lat="42.33953" lon="-71.1684">
    <ele>51.25</ele>
   </trkpt>
   <trkpt lat="42.339740000000006" lon="-71.16739000000001">
    <ele>47.940000000000005</ele>
   </trkpt>
   <trkpt lat="42.33984" lon="-71.16678">
    <ele>46.2</ele>
   </trkpt>
   <trkpt lat="42.33993" lon="-71.16601">
    <ele>45.95</ele>
   </trkpt>
   <trkpt lat="42.340030000000006" lon="-71.16494">
    <ele>47.89</ele>
   </trkpt>
   <trkpt lat="42.34006" lon="-71.16404">
    <ele>47.760000000000005</ele>
   </trkpt>
   <trkpt lat="42.34006" lon="-71.16342">
    <ele>47.220000000000006</ele>
   </trkpt>
   <trkpt lat="42.340020005996266" lon="-71.16224499919655">
    <ele>45.38</ele>
   </trkpt>
   <trkpt lat="42.339980000000004" lon="-71.16107000000001">
    <ele>44.97</ele>
   </trkpt>
   <trkpt lat="42.33993" lon="-71.16003">
    <ele>46.88</ele>
   </trkpt>
   <trkpt lat="42.339800000000004" lon="-71.15899">
    <ele>48.580000000000005</ele>
   </trkpt>
   <trkpt lat="42.33965500179305" lon="-71.15834499844867">
    <ele>49.1</ele>
   </trkpt>
   <trkpt lat="42.339510000000004" lon="-71.1577">
    <ele>48.830000000000005</ele>
   </trkpt>
   <trkpt lat="42.33932" lon="-71.15707">
    <ele>48.830000000000005</ele>
   </trkpt>
   <trkpt lat="42.33901" lon="-71.15626">
    <ele>48.470000000000006</ele>
   </trkpt>
   <trkpt lat="42.33857000384048" lon="-71.15531499330326">
    <ele>47.830000000000005</ele>
   </trkpt>
   <trkpt lat="42.33813000000001" lon="-71.15437">
    <ele>46.760000000000005</ele>
   </trkpt>
   <trkpt lat="42.338010000000004" lon="-71.15397">
    <ele>45.970000000000006</ele>
   </trkpt>
   <trkpt lat="42.33798" lon="-71.15376">
    <ele>45.970000000000006</ele>
   </trkpt>
   <trkpt lat="42.33796" lon="-71.15348">
    <ele>45.25000000000001</ele>
   </trkpt>
   <trkpt lat="42.33802" lon="-71.15323000000001">
    <ele>45.03</ele>
   </trkpt>
   <trkpt lat="42.337585001020805" lon="-71.15274499664378">
    <ele>43.53000000000001</ele>
   </trkpt>
   <trkpt lat="42.33715" lon="-71.15226000000001">
    <ele>41.32</ele>
   </trkpt>
   <trkpt lat="42.33678000080203" lon="-71.1518049972032">
    <ele>38.95</ele>
   </trkpt>
   <trkpt lat="42.33641" lon="-71.15135000000001">
    <ele>36.300000000000004</ele>
   </trkpt>
   <trkpt lat="42.33616000000001" lon="-71.15094">
    <ele>35.730000000000004</ele>
   </trkpt>
   <trkpt lat="42.33588" lon="-71.15068000000001">
    <ele>35.56</ele>
   </trkpt>
   <trkpt lat="42.33585" lon="-71.15028000000001">
    <ele>35.07</ele>
   </trkpt>
   <trkpt lat="42.33588" lon="-71.15008">
    <ele>35.07</ele>
   </trkpt>
   <trkpt lat="42.336060002358906" lon="-71.1493350023492">
    <ele>34.1</ele>
   </trkpt>
   <trkpt lat="42.336240000000004" lon="-71.14859000000001">
    <ele>33.27</ele>
   </trkpt>
   <trkpt lat="42.336495005423444" lon="-71.14747500442384">
    <ele>31.62</ele>
   </trkpt>
   <trkpt lat="42.33675" lon="-71.14636">
    <ele>30.820000000000004</ele>
   </trkpt>
   <trkpt lat="42.3369" lon="-71.14554000000001">
    <ele>30.7</ele>
   </trkpt>
   <trkpt lat="42.33710500394241" lon="-71.14459000299719">
    <ele>30.230000000000004</ele>
   </trkpt>
   <trkpt lat="42.33731" lon="-71.14364">
    <ele>29.93</ele>
   </trkpt>
   <trkpt lat="42.33751501297672" lon="-71.14264250971475">
    <ele>30.230000000000004</ele>
   </trkpt>
   <trkpt lat="42.337720017307966" lon="-71.1416450129257">
    <ele>31.41</ele>
   </trkpt>
   <trkpt lat="42.337925012993615" lon="-71.14064750963297">
    <ele>34.03</ele>
   </trkpt>
   <trkpt lat="42.33813000000001" lon="-71.13965">
    <ele>35.35</ele>
   </trkpt>
   <trkpt lat="42.33832" lon="-71.13888">
    <ele>35.86</ele>
   </trkpt>
   <trkpt lat="42.33854" lon="-71.13812">
    <ele>36.45</ele>
   </trkpt>
   <trkpt lat="42.338723338894425" lon="-71.1373200046643">
    <ele>37.44</ele>
   </trkpt>
   <trkpt lat="42.338906672227914" lon="-71.13652000466371">
    <ele>35.370000000000005</ele>
   </trkpt>
   <trkpt lat="42.339090000000006" lon="-71.13572">
    <ele>32.25</ele>
   </trkpt>
   <trkpt lat="42.339310000000005" lon="-71.13487">
    <ele>29.280000000000005</ele>
   </trkpt>
   <trkpt lat="42.33939" lon="-71.13448000000001">
    <ele>28.560000000000002</ele>
   </trkpt>
   <trkpt lat="42.33944" lon="-71.13413">
    <ele>28.270000000000003</ele>
   </trkpt>
   <trkpt lat="42.339470000000006" lon="-71.13363000000001">
    <ele>28.28</ele>
   </trkpt>
   <trkpt lat="42.33946500292168" lon="-71.13281000000309">
    <ele>29.77</ele>
   </trkpt>
   <trkpt lat="42.33946" lon="-71.13199">
    <ele>31.84</ele>
   </trkpt>
   <trkpt lat="42.339490000000005" lon="-71.13118">
    <ele>30.97</ele>
   </trkpt>
   <trkpt lat="42.339560000000006" lon="-71.13051">
    <ele>28.600000000000005</ele>
   </trkpt>
   <trkpt lat="42.33966" lon="-71.12978000000001">
    <ele>26.37</ele>
   </trkpt>
   <trkpt lat="42.339760000000005" lon="-71.12921">
    <ele>25.470000000000002</ele>
   </trkpt>
   <trkpt lat="42.33988" lon="-71.12870000000001">
    <ele>25.61</ele>
   </trkpt>
   <trkpt lat="42.340090000000004" lon="-71.12796">
    <ele>26.160000000000004</ele>
   </trkpt>
   <trkpt lat="42.34031" lon="-71.1273">
    <ele>26.17</ele>
   </trkpt>
   <trkpt lat="42.34053000141687" lon="-71.12673000198052">
    <ele>25.640000000000004</ele>
   </trkpt>
   <trkpt lat="42.34075000000001" lon="-71.12616">
    <ele>24.5</ele>
   </trkpt>
   <trkpt lat="42.340970000000006" lon="-71.12539000000001">
    <ele>22.770000000000003</ele>
   </trkpt>
   <trkpt lat="42.341120001518036" lon="-71.12480000138511">
    <ele>21.57</ele>
   </trkpt>
   <trkpt lat="42.34127" lon="-71.12421">
    <ele>20.880000000000003</ele>
   </trkpt>
   <trkpt lat="42.3414" lon="-71.12352">
    <ele>20.62</ele>
   </trkpt>
   <trkpt lat="42.34165" lon="-71.12245">
    <ele>19.810000000000002</ele>
   </trkpt>
   <trkpt lat="42.3418600021304" lon="-71.12175000233272">
    <ele>19.290000000000003</ele>
   </trkpt>
   <trkpt lat="42.34207000000001" lon="-71.12105000000001">
    <ele>18.7</ele>
   </trkpt>
   <trkpt lat="42.34234" lon="-71.12001000000001">
    <ele>16.69</ele>
   </trkpt>
   <trkpt lat="42.34261" lon="-71.11908000000001">
    <ele>13.690000000000001</ele>
   </trkpt>
   <trkpt lat="42.34286500382761" lon="-71.1181450036841">
    <ele>9.940000000000001</ele>
   </trkpt>
   <trkpt lat="42.343120000000006" lon="-71.11721">
    <ele>7.6000000000000005</ele>
   </trkpt>
   <trkpt lat="42.34339000000001" lon="-71.11631000000001">
    <ele>7.4</ele>
   </trkpt>
   <trkpt lat="42.34367251375555" lon="-71.11528251386848">
    <ele>7.670000000000001</ele>
   </trkpt>
   <trkpt lat="42.34395501833762" lon="-71.11425501850293">
    <ele>8.42</ele>
   </trkpt>
   <trkpt lat="42.34423751374606" lon="-71.1132275139035">
    <ele>7.74</ele>
   </trkpt>
   <trkpt lat="42.34452" lon="-71.1122">
    <ele>7.25</ele>
   </trkpt>
   <trkpt lat="42.34472" lon="-71.11138000000001">
    <ele>7.99</ele>
   </trkpt>
   <trkpt lat="42.34505" lon="-71.11028">
    <ele>7.24</ele>
   </trkpt>
   <trkpt lat="42.34529501037572" lon="-71.10938751045792">
    <ele>6.72</ele>
   </trkpt>
   <trkpt lat="42.345540013830096" lon="-71.10849501395936">
    <ele>6.670000000000001</ele>
   </trkpt>
   <trkpt lat="42.345785010363045" lon="-71.10760251050444">
    <ele>6.3100000000000005</ele>
   </trkpt>
   <trkpt lat="42.346030000000006" lon="-71.10671">
    <ele>6.050000000000001</ele>
   </trkpt>
   <trkpt lat="42.346270000000004" lon="-71.10601000000001">
    <ele>6.090000000000001</ele>
   </trkpt>
   <trkpt lat="42.346430000000005" lon="-71.10545">
    <ele>5.890000000000001</ele>
   </trkpt>
   <trkpt lat="42.346700000000006" lon="-71.10472">
    <ele>6.1000000000000005</ele>
   </trkpt>
   <trkpt lat="42.34677000000001" lon="-71.10463">
    <ele>6.08</ele>
   </trkpt>
   <trkpt lat="42.347006673095485" lon="-71.10377000646726">
    <ele>6.16</ele>
   </trkpt>
   <trkpt lat="42.34724333976444" lon="-71.10291000645904">
    <ele>7.23</ele>
   </trkpt>
   <trkpt lat="42.347480000000004" lon="-71.10205">
    <ele>9.430000000000001</ele>
   </trkpt>
   <trkpt lat="42.34761" lon="-71.10177">
    <ele>10.650000000000002</ele>
   </trkpt>
   <trkpt lat="42.34769" lon="-71.10151">
    <ele>11.35</ele>
   </trkpt>
   <trkpt lat="42.347970004763134" lon="-71.10046500458498">
    <ele>10.950000000000001</ele>
   </trkpt>
   <trkpt lat="42.34825" lon="-71.09942000000001">
    <ele>8.81</ele>
   </trkpt>
   <trkpt lat="42.348310000000005" lon="-71.09912">
    <ele>8.81</ele>
   </trkpt>
   <trkpt lat="42.34852" lon="-71.09833">
    <ele>7.03</ele>
   </trkpt>
   <trkpt lat="42.348670000000006" lon="-71.09797">
    <ele>6.470000000000001</ele>
   </trkpt>
   <trkpt lat="42.348940000000006" lon="-71.09696000000001">
    <ele>5.7</ele>
   </trkpt>
   <trkpt lat="42.348960000000005" lon="-71.09657">
    <ele>5.5</ele>
   </trkpt>
   <trkpt lat="42.349070000000005" lon="-71.09601">
    <ele>4.970000000000001</ele>
   </trkpt>
   <trkpt lat="42.34937501634825" lon="-71.09489001630904">
    <ele>4.28</ele>
   </trkpt>
   <trkpt lat="42.34968002179682" lon="-71.0937700217489">
    <ele>4.090000000000001</ele>
   </trkpt>
   <trkpt lat="42.34998501634551" lon="-71.09265001631977">
    <ele>4.4</ele>
   </trkpt>
   <trkpt lat="42.35029" lon="-71.09153">
    <ele>4.03</ele>
   </trkpt>
   <trkpt lat="42.35038" lon="-71.09153">
    <ele>4.03</ele>
   </trkpt>
   <trkpt lat="42.35069001693212" lon="-71.09039001689258">
    <ele>3.8200000000000003</ele>
   </trkpt>
   <trkpt lat="42.351000022571775" lon="-71.08925002254003">
    <ele>3.75</ele>
   </trkpt>
   <trkpt lat="42.35131001691874" lon="-71.08811001694248">
    <ele>3.8800000000000003</ele>
   </trkpt>
   <trkpt lat="42.351620000000004" lon="-71.08697000000001">
    <ele>4.08</ele>
   </trkpt>
   <trkpt lat="42.35118500034136" lon="-71.08674999854374">
    <ele>4.180000000000001</ele>
   </trkpt>
   <trkpt lat="42.350750000000005" lon="-71.08653000000001">
    <ele>4.21</ele>
   </trkpt>
   <trkpt lat="42.350030000000004" lon="-71.08618">
    <ele>4.580000000000001</ele>
   </trkpt>
   <trkpt lat="42.35" lon="-71.08615">
    <ele>4.49</ele>
   </trkpt>
   <trkpt lat="42.349880000000006" lon="-71.0861">
    <ele>4.61</ele>
   </trkpt>
   <trkpt lat="42.34913500064825" lon="-71.08574499584056">
    <ele>6.090000000000001</ele>
   </trkpt>
   <trkpt lat="42.34839" lon="-71.08539">
    <ele>8.190000000000001</ele>
   </trkpt>
   <trkpt lat="42.3481" lon="-71.08523000000001">
    <ele>8.520000000000001</ele>
   </trkpt>
   <trkpt lat="42.34808" lon="-71.08518000000001">
    <ele>8.520000000000001</ele>
   </trkpt>
   <trkpt lat="42.34825000171421" lon="-71.08454500185793">
    <ele>8.08</ele>
   </trkpt>
   <trkpt lat="42.348420000000004" lon="-71.08391">
    <ele>7.36</ele>
   </trkpt>
   <trkpt lat="42.348490000000005" lon="-71.08371000000001">
    <ele>7.36</ele>
   </trkpt>
   <trkpt lat="42.34867000212626" lon="-71.08300000228508">
    <ele>7.1000000000000005</ele>
   </trkpt>
   <trkpt lat="42.348850000000006" lon="-71.08229">
    <ele>6.260000000000001</ele>
   </trkpt>
   <trkpt lat="42.34892000000001" lon="-71.08216">
    <ele>6.220000000000001</ele>
   </trkpt>
   <trkpt lat="42.349000000000004" lon="-71.08185">
    <ele>6.220000000000001</ele>
   </trkpt>
   <trkpt lat="42.34902" lon="-71.08176">
    <ele>6.2700000000000005</ele>
   </trkpt>
   <trkpt lat="42.34901000000001" lon="-71.08175">
    <ele>6.2700000000000005</ele>
   </trkpt>
   <trkpt lat="42.34929500482832" lon="-71.0807000046195">
    <ele>6.23</ele>
   </trkpt>
   <trkpt lat="42.34958" lon="-71.07965">
    <ele>6.03</ele>
   </trkpt>
   <trkpt lat="42.34948000000001" lon="-71.07961">
    <ele>5.99</ele>
   </trkpt>
   <trkpt lat="42.34966" lon="-71.07895">
    <ele>5.960000000000001</ele>
   </trkpt>
  </trkseg>
 </trk>
</gpx>
